{"type": "FeatureCollection", "features": [{"type": "Feature", "geometry": {"type": "Polygon", "coordinates": [[[38.88595871461464, 20.723087467238724], [38.88780372564036, 20.73966219731287], [38.908795869746065, 20.895559823990155], [38.91352757328026, 20.903858483124505], [38.915958962772066, 20.906942567415417], [38.925101894996445, 20.900576180917906], [38.928259759929865, 20.8946278893643], [38.9286034086159, 20.885894676859618], [38.91568702447538, 20.803406568677932], [38.90951414276788, 20.76750510970537], [38.90357407703106, 20.753947174330904], [38.88595871461464, 20.723087467238724]]]}, "properties": {"role": "forecast_envelope", "slick_id": 0, "hours_ahead": 0.25, "time": "2026-01-01T12:15:00Z", "ensemble_members": 2, "envelope_kind": "particle convex hull; not a confidence contour"}}, {"type": "Feature", "geometry": {"type": "Polygon", "coordinates": [[[38.88717795479043, 20.722987910384283], [38.88773360326758, 20.739698833620615], [38.9111499838395, 20.896282692433257], [38.91506950043428, 20.905384728598033], [38.91738839274625, 20.908398527555004], [38.92717505107748, 20.90094259681351], [38.92971811293613, 20.89485802888567], [38.93121015000143, 20.88781950235578], [38.9162218160388, 20.794752978960616], [38.91163995520078, 20.767198773198793], [38.90396771678132, 20.753188089014596], [38.88717795479043, 20.722987910384283]]]}, "properties": {"role": "forecast_envelope", "slick_id": 0, "hours_ahead": 0.5, "time": "2026-01-01T12:30:00Z", "ensemble_members": 2, "envelope_kind": "particle convex hull; not a confidence contour"}}, {"type": "Feature", "geometry": {"type": "Polygon", "coordinates": [[[38.88840192094581, 20.723446732647968], [38.88645900252607, 20.739882110036064], [38.912871060291714, 20.897250790003618], [38.916844809624195, 20.9062088855272], [38.91936251561718, 20.90831908757149], [38.92857672846576, 20.901596010928916], [38.933604159754225, 20.895849372160257], [38.922357696053105, 20.816618193190063], [38.91370179525017, 20.76786508755035], [38.89066123331221, 20.725997691254356], [38.88840192094581, 20.723446732647968]]]}, "properties": {"role": "forecast_envelope", "slick_id": 0, "hours_ahead": 0.75, "time": "2026-01-01T12:45:00Z", "ensemble_members": 2, "envelope_kind": "particle convex hull; not a confidence contour"}}, {"type": "Feature", "geometry": {"type": "Polygon", "coordinates": [[[38.89042199316828, 20.72414592856666], [38.88909874917988, 20.739752541687274], [38.913183123076365, 20.89856110869413], [38.91723717564959, 20.906813567320985], [38.92153451686458, 20.90824450720023], [38.93013513441169, 20.901250094016685], [38.93514374598635, 20.89564197572038], [38.924121449890606, 20.81896455083388], [38.915120205899676, 20.769439611681054], [38.89280417456538, 20.7259867983129], [38.89042199316828, 20.72414592856666]]]}, "properties": {"role": "forecast_envelope", "slick_id": 0, "hours_ahead": 1.0, "time": "2026-01-01T13:00:00Z", "ensemble_members": 2, "envelope_kind": "particle convex hull; not a confidence contour"}}, {"type": "Feature", "geometry": {"type": "Point", "coordinates": [38.910979275123715, 20.839829568380473]}, "properties": {"role": "origin_hypothesis", "slick_id": 0, "lon": 38.910979275123715, "lat": 20.839829568380473, "hours_back": 0.0, "member": 0, "timing_resolved": false}}, {"type": "Feature", "geometry": {"type": "Point", "coordinates": [38.90942214405025, 20.839096801961077]}, "properties": {"role": "origin_hypothesis", "slick_id": 0, "lon": 38.90942214405025, "lat": 20.839096801961077, "hours_back": 0.25, "member": 0, "timing_resolved": false}}, {"type": "Feature", "geometry": {"type": "Point", "coordinates": [38.90786502055714, 20.83836403554168]}, "properties": {"role": "origin_hypothesis", "slick_id": 0, "lon": 38.90786502055714, "lat": 20.83836403554168, "hours_back": 0.5, "member": 0, "timing_resolved": false}}, {"type": "Feature", "geometry": {"type": "Point", "coordinates": [38.90630790464402, 20.837631269122284]}, "properties": {"role": "origin_hypothesis", "slick_id": 0, "lon": 38.90630790464402, "lat": 20.837631269122284, "hours_back": 0.75, "member": 0, "timing_resolved": false}}, {"type": "Feature", "geometry": {"type": "Point", "coordinates": [38.90475079631059, 20.836898502702887]}, "properties": {"role": "origin_hypothesis", "slick_id": 0, "lon": 38.90475079631059, "lat": 20.836898502702887, "hours_back": 1.0, "member": 0, "timing_resolved": false}}, {"type": "Feature", "geometry": {"type": "Point", "coordinates": [38.910979275123715, 20.839829568380473]}, "properties": {"role": "origin_hypothesis", "slick_id": 0, "lon": 38.910979275123715, "lat": 20.839829568380473, "hours_back": 0.0, "member": 1, "timing_resolved": false}}, {"type": "Feature", "geometry": {"type": "Point", "coordinates": [38.90938951414083, 20.839129069296963]}, "properties": {"role": "origin_hypothesis", "slick_id": 0, "lon": 38.90938951414083, "lat": 20.839129069296963, "hours_back": 0.25, "member": 1, "timing_resolved": false}}, {"type": "Feature", "geometry": {"type": "Point", "coordinates": [38.90779976055635, 20.838428570213456]}, "properties": {"role": "origin_hypothesis", "slick_id": 0, "lon": 38.90779976055635, "lat": 20.838428570213456, "hours_back": 0.5, "member": 1, "timing_resolved": false}}, {"type": "Feature", "geometry": {"type": "Point", "coordinates": [38.90621001436997, 20.83772807112994]}, "properties": {"role": "origin_hypothesis", "slick_id": 0, "lon": 38.90621001436997, "lat": 20.83772807112994, "hours_back": 0.75, "member": 1, "timing_resolved": false}}, {"type": "Feature", "geometry": {"type": "Point", "coordinates": [38.90462027558138, 20.83702757204643]}, "properties": {"role": "origin_hypothesis", "slick_id": 0, "lon": 38.90462027558138, "lat": 20.83702757204643, "hours_back": 1.0, "member": 1, "timing_resolved": false}}, {"type": "Feature", "geometry": {"type": "LineString", "coordinates": [[38.910979275123715, 20.839829568380473], [38.90942214405025, 20.839096801961077], [38.90786502055714, 20.83836403554168], [38.90630790464402, 20.837631269122284], [38.90475079631059, 20.836898502702887]]}, "properties": {"role": "hindcast_track", "slick_id": 0, "member": 0}}, {"type": "Feature", "geometry": {"type": "LineString", "coordinates": [[38.910979275123715, 20.839829568380473], [38.90938951414083, 20.839129069296963], [38.90779976055635, 20.838428570213456], [38.90621001436997, 20.83772807112994], [38.90462027558138, 20.83702757204643]]}, "properties": {"role": "hindcast_track", "slick_id": 0, "member": 1}}]}