{"type": "FeatureCollection", "features": [{"type": "Feature", "geometry": {"type": "LineString", "coordinates": [[31.519094905799122, 33.29403997693402], [31.552460601950255, 33.313259509413164], [31.585826298101384, 33.332479041892306], [31.619191994252517, 33.35169857437145], [31.652557690403647, 33.37091810685059], [31.68592338655478, 33.39013763932973], [31.71928908270591, 33.40935717180887], [31.752654778857043, 33.42857670428801], [31.786020475008172, 33.447796236767154], [31.819386171159305, 33.467015769246295], [31.852751867310435, 33.486235301725436], [31.886117563461568, 33.50545483420458], [31.919483259612697, 33.52467436668372], [31.95284895576383, 33.54389389916286], [31.98621465191496, 33.563113431642], [32.01958034806609, 33.58233296412114], [32.05294604421722, 33.601552496600284], [32.08631174036835, 33.620772029079426], [32.11967743651949, 33.63999156155857], [32.15304313267062, 33.65921109403771], [32.18640882882175, 33.67843062651685], [32.21977452497288, 33.69765015899599], [32.25314022112401, 33.71686969147513], [32.28650591727514, 33.736089223954274], [32.31987161342627, 33.755308756433415], [32.3532373095774, 33.774528288912556], [32.38660300572854, 33.7937478213917], [32.41996870187967, 33.81296735387084], [32.4533343980308, 33.83218688634998], [32.48670009418193, 33.85140641882912], [32.520065790333064, 33.87062595130826], [32.55343148648419, 33.889845483787404], [32.58679718263532, 33.909065016266545], [32.62016287878645, 33.92828454874569], [32.65352857493759, 33.94750408122483], [32.68689427108872, 33.96672361370397], [32.72025996723985, 33.98594314618311], [32.75362566339098, 34.00516267866225], [32.786991359542114, 34.02438221114139], [32.82035705569324, 34.043601743620535], [32.85372275184437, 34.06282127609967], [32.8870884479955, 34.08204080857882], [32.92045414414664, 34.10126034105796], [32.95381984029777, 34.12047987353709], [32.9871855364489, 34.139699406016234], [33.02055123260003, 34.158918938495376], [33.053916928751164, 34.17813847097452], [33.08728262490229, 34.19735800345366], [33.12064832105342, 34.2165775359328], [33.15401401720455, 34.23579706841194], [33.18737971335569, 34.25501660089108], [33.22074540950682, 34.27423613337022], [33.25411110565795, 34.293455665849365], [33.28747680180908, 34.312675198328506], [33.320842497960214, 34.33189473080765], [33.354208194111344, 34.35111426328679], [33.38757389026247, 34.37033379576593], [33.42093958641361, 34.38955332824507], [33.45430528256474, 34.40877286072421], [33.48767097871587, 34.427992393203354], [33.521036674867, 34.447211925682495], [33.55440237101813, 34.46643145816164], [33.587768067169264, 34.48565099064078], [33.621133763320394, 34.50487052311992], [33.65449945947152, 34.52409005559906], [33.68786515562265, 34.5433095880782], [33.72123085177379, 34.56252912055734], [33.75459654792492, 34.581748653036485], [33.78796224407605, 34.600968185515626], [33.821327940227185, 34.62018771799477], [33.854693636378315, 34.63940725047391], [33.888059332529444, 34.65862678295305], [33.921425028680574, 34.67784631543219], [33.95479072483171, 34.69706584791133], [33.98815642098284, 34.716285380390474], [34.02152211713397, 34.735504912869615], [34.0548878132851, 34.75472444534876], [34.088253509436235, 34.7739439778279], [34.121619205587365, 34.79316351030704], [34.154984901738494, 34.81238304278618], [34.188350597889624, 34.83160257526532], [34.22171629404076, 34.85082210774446], [34.25508199019189, 34.870041640223604], [34.28844768634302, 34.889261172702746], [34.32181338249415, 34.90848070518189], [34.355179078645286, 34.92770023766103], [34.388544774796415, 34.94691977014017], [34.421910470947545, 34.96613930261931], [34.455276167098674, 34.98535883509845], [34.48864186324981, 35.004578367577594], [34.52200755940094, 35.023797900056735], [34.55537325555207, 35.043017432535876], [34.73054316034551, 35.14391997805137], [34.74722600842107, 35.15352974429094], [34.76390885649664, 35.16313951053051], [34.980785881478994, 35.288066471644925], [34.99746872955456, 35.297676237884495], [35.01415157763012, 35.307286004124066], [35.189321482423566, 35.40818854963956], [35.222687178574695, 35.4274080821187], [35.256052874725825, 35.446627614597844], [35.28941857087696, 35.465847147076985], [35.32278426702809, 35.48506667955613], [35.35614996317922, 35.50428621203527], [35.38951565933035, 35.52350574451441], [35.422881355481486, 35.54272527699355], [35.456247051632616, 35.56194480947269], [35.489612747783745, 35.58116434195183], [35.522978443934875, 35.600383874430975], [35.55634414008601, 35.619603406910116], [35.58970983623714, 35.63882293938926], [35.62307553238827, 35.6580424718684], [35.6564412285394, 35.67726200434754], [35.68980692469054, 35.69648153682668], [35.723172620841666, 35.71570106930582], [35.756538316992796, 35.734920601784964], [35.789904013143925, 35.754140134264105], [35.82326970929506, 35.77335966674325], [35.85663540544619, 35.79257919922239], [35.89000110159732, 35.81179873170153], [35.92336679774845, 35.83101826418067], [35.95673249389959, 35.85023779665981], [35.990098190050716, 35.86945732913895], [36.023463886201846, 35.888676861618094], [36.05682958235298, 35.907896394097236], [36.09019527850411, 35.92711592657638], [36.12356097465524, 35.94633545905552], [36.15692667080637, 35.96555499153466], [36.19029236695751, 35.9847745240138], [36.22365806310864, 36.00399405649294], [36.257023759259766, 36.023213588972084], [36.290389455410896, 36.042433121451225], [36.323755151562025, 36.061652653930366], [36.35712084771316, 36.08087218640951], [36.39048654386429, 36.10009171888865], [36.42385224001542, 36.11931125136779], [36.45721793616656, 36.13853078384693], [36.49058363231769, 36.15775031632607], [36.52394932846882, 36.176969848805214], [36.557315024619946, 36.196189381284356], [36.59068072077108, 36.2154089137635], [36.62404641692221, 36.23462844624264], [36.65741211307334, 36.25384797872178], [36.69077780922447, 36.27306751120092], [36.72414350537561, 36.29228704368006], [36.75750920152674, 36.3115065761592], [36.79087489767787, 36.330726108638345], [36.824240593828996, 36.34994564111748], [36.85760628998013, 36.36916517359662], [36.89097198613126, 36.38838470607577], [36.92433768228239, 36.4076042385549], [36.95770337843352, 36.426823771034044], [36.99106907458466, 36.446043303513186], [37.02443477073579, 36.46526283599233], [37.05780046688692, 36.48448236847147], [37.09116616303805, 36.50370190095061], [37.12453185918918, 36.52292143342975], [37.15789755534031, 36.54214096590889], [37.19126325149144, 36.561360498388034], [37.22462894764257, 36.580580030867175], [37.25799464379371, 36.599799563346316], [37.29136033994484, 36.61901909582546], [37.32472603609597, 36.6382386283046], [37.3580917322471, 36.65745816078374], [37.39145742839823, 36.67667769326288], [37.42482312454936, 36.69589722574202], [37.45818882070049, 36.715116758221164], [37.49155451685162, 36.734336290700305], [37.52492021300276, 36.75355582317945], [37.55828590915389, 36.77277535565859], [37.59165160530502, 36.79199488813773], [37.62501730145615, 36.81121442061687], [37.65838299760728, 36.83043395309601], [37.69174869375841, 36.84965348557515], [37.72511438990954, 36.868873018054295], [37.75848008606067, 36.888092550533436], [37.79184578221181, 36.90731208301258], [37.82521147836294, 36.92653161549172], [37.85857717451407, 36.94575114797086], [37.8919428706652, 36.96497068045], [37.925308566816334, 36.98419021292914], [37.95867426296746, 37.003409745408284], [37.99203995911859, 37.022629277887425], [38.02540565526972, 37.04184881036657], [38.05877135142086, 37.06106834284571], [38.09213704757199, 37.08028787532485], [38.12550274372312, 37.09950740780399], [38.158868439874254, 37.11872694028313], [38.192234136025384, 37.13794647276227], [38.22559983217651, 37.157166005241415], [38.25896552832764, 37.176385537720556], [38.29233122447877, 37.1956050701997], [38.32569692062991, 37.21482460267884], [38.35906261678104, 37.23404413515798], [38.39242831293217, 37.25326366763712], [38.4257940090833, 37.27248320011626], [38.459159705234434, 37.291702732595404], [38.492525401385564, 37.310922265074545], [38.52589109753669, 37.330141797553686], [38.55925679368782, 37.34936133003283], [38.59262248983896, 37.36858086251197], [38.62598818599009, 37.38780039499111], [38.65935388214122, 37.40701992747025], [38.692719578292355, 37.42623945994939], [38.726085274443484, 37.445458992428534], [38.759450970594614, 37.464678524907676], [38.79281666674574, 37.48389805738682], [38.82618236289687, 37.50311758986596], [38.85954805904801, 37.5223371223451], [38.89291375519914, 37.54155665482424], [38.92627945135027, 37.56077618730338], [38.959645147501405, 37.579995719782524], [38.993010843652534, 37.599215252261665], [39.026376539803664, 37.618434784740806], [39.05974223595479, 37.63765431721995], [39.09310793210592, 37.65687384969909], [39.12647362825706, 37.67609338217823], [39.15983932440819, 37.69531291465737], [39.19320502055932, 37.71453244713651], [39.226570716710455, 37.733751979615654], [39.259936412861585, 37.752971512094796], [39.293302109012714, 37.77219104457394], [39.326667805163844, 37.79141057705308], [39.36003350131498, 37.81063010953222], [39.39339919746611, 37.82984964201136], [39.42676489361724, 37.8490691744905], [39.46013058976837, 37.86828870696964], [39.493496285919505, 37.887508239448785], [39.526861982070635, 37.906727771927926], [39.560227678221764, 37.92594730440707], [39.593593374372894, 37.94516683688621], [39.62695907052403, 37.96438636936535], [39.66032476667516, 37.98360590184449], [39.69369046282629, 38.00282543432363], [39.72705615897742, 38.022044966802774], [39.760421855128556, 38.041264499281915], [39.793787551279685, 38.06048403176106], [39.827153247430815, 38.0797035642402], [39.860518943581944, 38.09892309671934], [39.89388463973307, 38.11814262919848], [39.92725033588421, 38.13736216167762], [39.96061603203534, 38.15658169415676], [39.99398172818647, 38.175801226635905], [40.027347424337606, 38.195020759115046], [40.060713120488735, 38.21424029159419], [40.094078816639865, 38.23345982407333], [40.127444512790994, 38.25267935655247], [40.16081020894213, 38.27189888903161], [40.19417590509326, 38.29111842151075], [40.22754160124439, 38.310337953989894], [40.26090729739552, 38.329557486469035], [40.294272993546656, 38.34877701894818], [40.327638689697785, 38.36799655142732], [40.361004385848915, 38.38721608390646], [40.394370082000044, 38.4064356163856], [40.42773577815118, 38.42565514886474], [40.46110147430231, 38.44487468134388], [40.49446717045344, 38.464094213823024], [40.52783286660457, 38.48331374630216], [40.561198562755706, 38.50253327878131], [40.594564258906836, 38.52175281126044], [40.627929955057965, 38.54097234373958], [40.661295651209095, 38.560191876218724], [40.694661347360224, 38.579411408697865], [40.72802704351136, 38.59863094117701], [40.76139273966249, 38.61785047365615], [40.79475843581362, 38.63707000613529], [40.828124131964756, 38.65628953861443], [40.861489828115886, 38.67550907109357], [40.894855524267015, 38.69472860357271], [40.928221220418145, 38.713948136051854], [40.96158691656928, 38.733167668530996], [40.99495261272041, 38.75238720101014], [41.02831830887154, 38.77160673348928], [41.06168400502267, 38.79082626596842], [41.09504970117381, 38.81004579844756], [41.128415397324936, 38.8292653309267]]}, "properties": {"MMSI": 999000001, "VesselName": "SUSPECT_A", "role": "vessel_track"}}, {"type": "Feature", "geometry": {"type": "LineString", "coordinates": [[36.1413786086996, 36.30512519652838], [36.11612984228154, 36.28198899831674], [36.090888556011386, 36.2588528001051], [36.06565474134502, 36.235716601893465], [36.04042838974835, 36.21258040368183], [36.015209492697274, 36.18944420547019], [35.98999804167768, 36.16630800725855], [35.96479402818543, 36.14317180904691], [35.93959744372632, 36.120035610835274], [35.914408279816094, 36.096899412623635], [35.88922652798039, 36.073763214412], [35.86405217975476, 36.05062701620036], [35.83888522668461, 36.02749081798872], [35.813725660325225, 36.00435461977708], [35.78857347224173, 35.981218421565444], [35.76342865400906, 35.958082223353806], [35.73829119721197, 35.93494602514217], [35.713161093444995, 35.91180982693053], [35.688038334312445, 35.88867362871889], [35.66292291142838, 35.86553743050725], [35.6378148164166, 35.842401232295614], [35.61271404091062, 35.819265034083976], [35.587620576553654, 35.79612883587234], [35.56253441499861, 35.7729926376607], [35.537455547908046, 35.74985643944906], [35.51238396695418, 35.72672024123742], [35.487319663818866, 35.703584043025785], [35.46226263019356, 35.68044784481415], [35.43721285777931, 35.65731164660251], [35.41217033828676, 35.63417544839087], [35.387135063436105, 35.61103925017923], [35.3621070249571, 35.587903051967594], [35.33708621458901, 35.564766853755955], [35.31207262408061, 35.54163065554432], [35.2870662451902, 35.51849445733268], [35.26206706968553, 35.49535825912104], [35.2370750893438, 35.4722220609094], [35.212090295951676, 35.449085862697764], [35.18711268130525, 35.425949664486126], [35.16214223721002, 35.40281346627449], [35.13717895548086, 35.37967726806285], [35.11222282794205, 35.35654106985121], [35.0872738464272, 35.33340487163957], [35.062332002779286, 35.310268673427935], [35.03739728885059, 35.287132475216296], [35.01246969650272, 35.26399627700466], [34.98754921760656, 35.24086007879302], [34.962635844042296, 35.21772388058138], [34.93772956769934, 35.19458768236974], [34.91283038047638, 35.171451484158105], [34.887938274281304, 35.14831528594647], [34.863053241031224, 35.12517908773483], [34.83817527265244, 35.10204288952319], [34.81330436108044, 35.07890669131155], [34.78844049825986, 35.055770493099914], [34.763583676144485, 35.032634294888275], [34.73873388669723, 35.00949809667664], [34.71389112189013, 34.986361898465], [34.6890553737043, 34.96322570025336], [34.664226634129946, 34.94008950204172], [34.63940489516633, 34.916953303830084], [34.61459014882177, 34.893817105618446], [34.58978238711361, 34.87068090740681], [34.564981602068215, 34.84754470919517], [34.540187785720946, 34.82440851098353], [34.515400930116144, 34.80127231277189], [34.49062102730712, 34.778136114560255], [34.46584806935615, 34.754999916348616], [34.44108204833442, 34.73186371813698], [34.41632295632206, 34.70872751992534], [34.39157078540809, 34.6855913217137], [34.36682552769042, 34.66245512350206], [34.34208717527584, 34.639318925290425], [34.31735572028, 34.61618272707879], [34.29263115482737, 34.59304652886715], [34.267913471051266, 34.56991033065551], [34.24320266109381, 34.54677413244387], [34.218498717105916, 34.523637934232234], [34.193801631247275, 34.500501736020595], [34.16911139568634, 34.47736553780896], [34.14442800260033, 34.45422933959732], [34.11975144417517, 34.43109314138568], [34.09508171260553, 34.40795694317404], [34.07041880009475, 34.384820744962404], [34.04576269885488, 34.361684546750766], [34.02111340110663, 34.33854834853913], [33.99647089907938, 34.31541215032749], [33.97183518501112, 34.29227595211585], [33.947206251148515, 34.26913975390421], [33.92258408974679, 34.246003555692575], [33.89796869306979, 34.222867357480936], [33.87336005338994, 34.1997311592693], [33.84875816298821, 34.17659496105766], [33.82416301415415, 34.15345876284602], [33.79957459918583, 34.13032256463438], [33.77499291038983, 34.107186366422745], [33.75041794008124, 34.08405016821111], [33.72584968058365, 34.06091396999947], [33.701288124229116, 34.03777777178783], [33.67673326335815, 34.01464157357619], [33.65218509031972, 33.991505375364554], [33.62764359747121, 33.968369177152915], [33.60310877717844, 33.94523297894128], [33.578580621815604, 33.92209678072964], [33.5540591237653, 33.898960582518], [33.52954427541849, 33.87582438430636], [33.50503606917449, 33.852688186094724], [33.48053449744096, 33.829551987883086], [33.456039552633904, 33.80641578967145], [33.43155122717761, 33.78327959145981], [33.40706951350467, 33.76014339324817], [33.38259440405598, 33.73700719503653], [33.35812589128068, 33.713870996824895], [33.33366396763618, 33.690734798613256], [33.30920862558812, 33.66759860040162], [33.284759857610375, 33.64446240218998], [33.26031765618502, 33.62132620397834], [33.23588201380234, 33.5981900057667], [33.21145292296078, 33.575053807555065], [33.18703037616698, 33.55191760934343], [33.16261436593572, 33.52878141113179], [33.13820488478991, 33.50564521292015], [33.113801925260596, 33.48250901470851], [33.08940547988694, 33.459372816496874], [33.0650155412162, 33.436236618285236], [33.0406321018037, 33.4131004200736], [33.01625515421285, 33.38996422186196], [32.9918846910151, 33.36682802365032], [32.96752070478996, 33.34369182543868], [32.94316318812495, 33.320555627227044], [32.9188121336156, 33.297419429015406], [32.89446753386546, 33.27428323080377], [32.87012938148604, 33.25114703259213], [32.845797669096825, 33.22801083438049], [32.821472389325265, 33.20487463616885], [32.79715353480675, 33.181738437957215], [32.77284109818461, 33.158602239745576], [32.74853507211006, 33.13546604153394], [32.724235449242244, 33.1123298433223], [32.69994222224818, 33.08919364511066], [32.67565538380277, 33.06605744689902], [32.651374926588765, 33.042921248687385], [32.627100843296766, 33.01978505047575], [32.60283312662521, 32.99664885226411], [32.578571769280344, 32.97351265405247], [32.55431676397624, 32.95037645584083], [32.530068103434736, 32.927240257629194], [32.50582578038547, 32.904104059417556], [32.48158978756583, 32.88096786120592], [32.45736011772097, 32.85783166299428], [32.43313676360376, 32.83469546478264], [32.408919717974825, 32.811559266571], [32.38470897360248, 32.788423068359364], [32.36050452326273, 32.765286870147726], [32.3363063597393, 32.74215067193609], [32.312114475823535, 32.71901447372445], [32.28792886431448, 32.69587827551281], [32.26374951801881, 32.67274207730117], [32.239576429750834, 32.649605879089535], [32.21540959233246, 32.6264696808779], [32.19124899859323, 32.60333348266626], [32.16709464137026, 32.58019728445462], [32.14294651350825, 32.55706108624298], [32.11880460785946, 32.53392488803134], [32.094668917283705, 32.510788689819705], [32.070539434648346, 32.48765249160807], [32.04641615282826, 32.46451629339643], [32.022299064705834, 32.44138009518479], [31.998188163170973, 32.41824389697315], [31.974083441121053, 32.395107698761514], [31.94998489146093, 32.371971500549876], [31.92589250710292, 32.34883530233824], [31.901806280966785, 32.3256991041266], [31.877726205979727, 32.30256290591496], [31.85365227507637, 32.27942670770332], [31.829584481198747, 32.256290509491684], [31.805522817296286, 32.233154311280046], [31.7814672763258, 32.21001811306841], [31.757417851251475, 32.18688191485677], [31.733374535044856, 32.16374571664513], [31.70933732068483, 32.14060951843349], [31.685306201157623, 32.117473320221855], [31.661281169456775, 32.09433712201022], [31.63726221858314, 32.07120092379858], [31.613249341544865, 32.04806472558694], [31.58924253135738, 32.0249285273753], [31.56524178104339, 32.00179232916366], [31.541247083632847, 31.97865613095202], [31.517258432162958, 31.95551993274038], [31.49327581967816, 31.932383734528738], [31.469299239230107, 31.909247536317096], [31.445328683877666, 31.886111338105454], [31.421364146686898, 31.862975139893813], [31.397405620731046, 31.83983894168217], [31.373453099090526, 31.81670274347053], [31.349506574852906, 31.793566545258887], [31.32556604111291, 31.770430347047245], [31.30163149097239, 31.747294148835604], [31.27770291754032, 31.72415795062396], [31.253780313932783, 31.70102175241232], [31.22986367327296, 31.677885554200678], [31.205952988691116, 31.654749355989036], [31.182048253324595, 31.631613157777394], [31.15814946031779, 31.608476959565753], [31.134256602822152, 31.58534076135411], [31.110369673996164, 31.56220456314247], [31.086488667005334, 31.539068364930827], [31.062613575022183, 31.515932166719185], [31.038744391226235, 31.492795968507544], [31.014881108803994, 31.469659770295902], [30.99102372094895, 31.44652357208426], [30.96717222086155, 31.423387373872618], [30.943326601749195, 31.400251175660976], [30.919486856826232, 31.377114977449335], [30.89565297931393, 31.353978779237693], [30.871824962440474, 31.33084258102605], [30.848002799440955, 31.30770638281441], [30.824186483557362, 31.284570184602767], [30.800376008038562, 31.261433986391125], [30.776571366140285, 31.238297788179484], [30.75277255112513, 31.215161589967842], [30.728979556262534, 31.1920253917562], [30.70519237482877, 31.16888919354456], [30.681411000106934, 31.145752995332916], [30.657635425386932, 31.122616797121275], [30.63386564396547, 31.099480598909633], [30.610101649146042, 31.07634440069799], [30.586343434238916, 31.05320820248635], [30.562590992561123, 31.030072004274707], [30.538844317436453, 31.006935806063066], [30.51510340219543, 30.983799607851424], [30.491368240175312, 30.960663409639782], [30.467638824720073, 30.93752721142814], [30.443915149180395, 30.9143910132165], [30.420197206913656, 30.891254815004856], [30.396484991283916, 30.868118616793215], [30.37277849566191, 30.844982418581573], [30.34907771342503, 30.82184622036993], [30.32538263795732, 30.79871002215829], [30.301693262649458, 30.775573823946647], [30.278009580898757, 30.752437625735006], [30.254331586109146, 30.729301427523364], [30.230659271691145, 30.706165229311722], [30.206992631061883, 30.68302903110008], [30.18333165764506, 30.65989283288844], [30.159676344870952, 30.636756634676797], [30.136026686176393, 30.613620436465155], [30.112382675004767, 30.590484238253513], [30.08874430480599, 30.56734804004187], [30.065111569036507, 30.54421184183023], [30.041484461159282, 30.521075643618587], [30.017862974643776, 30.497939445406946], [29.994247102965947, 30.474803247195304], [29.970636839608233, 30.451667048983662], [29.94703217805954, 30.42853085077202], [29.92343311181524, 30.40539465256038], [29.899839634377148, 30.382258454348737], [29.87625173925352, 30.359122256137095], [29.852669419959035, 30.335986057925453], [29.82909267001479, 30.31284985971381], [29.805521482948294, 30.28971366150217], [29.781955852293432, 30.266577463290528], [29.75839577159049, 30.243441265078886], [29.734841234386113, 30.220305066867244], [29.71129223423332, 30.197168868655602], [29.68774876469147, 30.17403267044396], [29.664210819326264, 30.15089647223232], [29.640678391709738, 30.127760274020677], [29.61715147542024, 30.104624075809035], [29.593630064042426, 30.081487877597393], [29.57011415116725, 30.05835167938575], [29.546603730391954, 30.03521548117411], [29.523098795320053, 30.012079282962468], [29.499599339561325, 29.988943084750826], [29.476105356731807, 29.965806886539184], [29.45261684045378, 29.942670688327542], [29.42913378435575, 29.9195344901159], [29.405656182072452, 29.89639829190426], [29.382184027244833, 29.873262093692617], [29.358717313520035, 29.850125895480975], [29.3352560345514, 29.826989697269333], [29.311800183998443, 29.80385349905769], [29.288349755526852, 29.78071730084605], [29.264904742808476, 29.757581102634408], [29.241465139521306, 29.734444904422766], [29.218030939349482, 29.711308706211124], [29.19460213598326, 29.688172507999482], [29.171178723119024, 29.66503630978784], [29.147760694459258, 29.6419001115762]]}, "properties": {"MMSI": 200000006, "VesselName": "VESSEL_006", "role": "vessel_track"}}]}